[{"OBJECT_NAME":"STARLINK-31973","OBJECT_ID":"2024-106X","EPOCH":"2026-03-09T02:55:42.343104","MEAN_MOTION":15.27567779,"ECCENTRICITY":6.024e-5,"INCLINATION":43.0021,"RA_OF_ASC_NODE":335.9351,"ARG_OF_PERICENTER":246.2423,"MEAN_ANOMALY":113.8366,"EPHEMERIS_TYPE":0,"CLASSIFICATION_TYPE":"U","NORAD_CAT_ID":59943,"ELEMENT_SET_NO":999,"REV_AT_EPOCH":10043,"BSTAR":-3.5143524e-5,"MEAN_MOTION_DOT":-1.228e-5,"MEAN_MOTION_DDOT":0},{"OBJECT_NAME":"CZ-6A DEB","OBJECT_ID":"2022-151CC","EPOCH":"2026-03-09T19:21:24.185952","MEAN_MOTION":15.21292269,"ECCENTRICITY":0.00294338,"INCLINATION":98.6347,"RA_OF_ASC_NODE":160.1892,"ARG_OF_PERICENTER":145.6687,"MEAN_ANOMALY":214.6455,"EPHEMERIS_TYPE":0,"CLASSIFICATION_TYPE":"U","NORAD_CAT_ID":54333,"ELEMENT_SET_NO":999,"REV_AT_EPOCH":17712,"BSTAR":0.0073643753,"MEAN_MOTION_DOT":0.00170206,"MEAN_MOTION_DDOT":0}]
